IRIDIUM 166             
1 43570U 18061B   24175.58618694  .00000277  00000+0  91775-4 0  9999
2 43570  86.3974 359.1365 0002266  95.7329 264.4126 14.34217545309688
IRIDIUM 158             
1 43571U 18061C   24175.55446820  .00000244  00000+0  80189-4 0  9998
2 43571  86.3973 359.1587 0002273  88.6375 271.5081 14.34216959309647
IRIDIUM 165             
1 43572U 18061D   24175.57984258 -.00000012  00000+0 -11511-4 0  9991
2 43572  86.3972 359.1810 0002168  89.6770 270.4674 14.34217774309674
IRIDIUM 155             
1 43573U 18061E   24175.61155657  .00000077  00000+0  20458-4 0  9999
2 43573  86.3971 359.0726 0002226  95.7866 264.3583 14.34217564309643
IRIDIUM 154             
1 43574U 18061F   24175.59252782  .00000016  00000+0 -12663-5 0  9998
2 43574  86.3972 359.1785 0001930  83.7898 276.3518 14.34217691309691
IRIDIUM 163             
1 43575U 18061G   24175.57350019  .00000007  00000+0 -44560-5 0  9990
2 43575  86.3973 359.1244 0002125  91.2579 268.8861 14.34217828309666
IRIDIUM 156             
1 43576U 18061H   24175.54812915  .00000047  00000+0  96282-5 0  9997
2 43576  86.3973 359.1414 0002295  90.8030 269.3429 14.34217024309643
IRIDIUM 164             
1 43577U 18061J   24175.59887128  .00000107  00000+0  31222-4 0  9990
2 43577  86.3973 359.1492 0002305  81.7604 278.3853 14.34218011309703
